STARLINK-30494          
1 57970U 23151G   26068.36049035 -.00001272  00000+0 -35691-4 0  9993
2 57970  43.0027 192.4566 0001155 241.5536 118.5200 15.28417441137406
STARLINK-36134          
1 66863U 25281R   26068.18721451  .00026679  00000+0  97535-3 0  9999
2 66863  43.0016 345.8784 0001741 263.0169  97.0485 15.27585695 16119
